{"fetched_at":"2026-07-08T18:00:44.396Z","source":"https://celestrak.org/NORAD/elements/gp.php?NAME=SPACEMOBILE&FORMAT=JSON","constellation":"ast-spacemobile","records":[{"OBJECT_NAME":"SPACEMOBILE-003","OBJECT_ID":"2024-163A","EPOCH":"2026-07-07T14:09:21.655008","CLASSIFICATION_TYPE":"U","MEAN_MOTION":15.20789545,"ECCENTRICITY":0.0005935,"INCLINATION":52.9711,"RA_OF_ASC_NODE":215.6104,"ARG_OF_PERICENTER":173.052,"MEAN_ANOMALY":187.0558,"EPHEMERIS_TYPE":0,"NORAD_CAT_ID":61045,"ELEMENT_SET_NO":999,"REV_AT_EPOCH":10087,"BSTAR":0.000051476,"MEAN_MOTION_DOT":0.00000822,"MEAN_MOTION_DDOT":0},{"OBJECT_NAME":"SPACEMOBILE-005","OBJECT_ID":"2024-163B","EPOCH":"2026-07-08T08:41:08.381184","CLASSIFICATION_TYPE":"U","MEAN_MOTION":15.20763837,"ECCENTRICITY":0.0008903,"INCLINATION":52.9802,"RA_OF_ASC_NODE":212.0048,"ARG_OF_PERICENTER":170.8049,"MEAN_ANOMALY":189.311,"EPHEMERIS_TYPE":0,"NORAD_CAT_ID":61046,"ELEMENT_SET_NO":999,"REV_AT_EPOCH":10098,"BSTAR":0.0001439,"MEAN_MOTION_DOT":0.00002885,"MEAN_MOTION_DDOT":0},{"OBJECT_NAME":"SPACEMOBILE-001","OBJECT_ID":"2024-163C","EPOCH":"2026-07-08T11:48:14.697792","CLASSIFICATION_TYPE":"U","MEAN_MOTION":15.20812105,"ECCENTRICITY":0.0007522,"INCLINATION":52.9747,"RA_OF_ASC_NODE":211.126,"ARG_OF_PERICENTER":173.6655,"MEAN_ANOMALY":186.4436,"EPHEMERIS_TYPE":0,"NORAD_CAT_ID":61047,"ELEMENT_SET_NO":999,"REV_AT_EPOCH":10100,"BSTAR":0.000039835,"MEAN_MOTION_DOT":0.00000562,"MEAN_MOTION_DDOT":0},{"OBJECT_NAME":"SPACEMOBILE-002","OBJECT_ID":"2024-163D","EPOCH":"2026-07-08T11:25:13.504800","CLASSIFICATION_TYPE":"U","MEAN_MOTION":15.20856991,"ECCENTRICITY":0.000673,"INCLINATION":52.9765,"RA_OF_ASC_NODE":211.2391,"ARG_OF_PERICENTER":173.3276,"MEAN_ANOMALY":186.7809,"EPHEMERIS_TYPE":0,"NORAD_CAT_ID":61048,"ELEMENT_SET_NO":999,"REV_AT_EPOCH":10100,"BSTAR":0.00020198,"MEAN_MOTION_DOT":0.00004194,"MEAN_MOTION_DDOT":0},{"OBJECT_NAME":"SPACEMOBILE-004","OBJECT_ID":"2024-163E","EPOCH":"2026-07-06T11:41:01.713696","CLASSIFICATION_TYPE":"U","MEAN_MOTION":15.20801145,"ECCENTRICITY":0.0007073,"INCLINATION":52.9667,"RA_OF_ASC_NODE":220.1743,"ARG_OF_PERICENTER":196.8401,"MEAN_ANOMALY":163.236,"EPHEMERIS_TYPE":0,"NORAD_CAT_ID":61049,"ELEMENT_SET_NO":999,"REV_AT_EPOCH":10070,"BSTAR":0.00051660541,"MEAN_MOTION_DOT":0.00011231,"MEAN_MOTION_DDOT":0},{"OBJECT_NAME":"SPACEMOBILE-001 DEB","OBJECT_ID":"2024-163F","EPOCH":"2026-07-08T09:49:19.676064","CLASSIFICATION_TYPE":"U","MEAN_MOTION":15.35299245,"ECCENTRICITY":0.0005943,"INCLINATION":52.9919,"RA_OF_ASC_NODE":179.4152,"ARG_OF_PERICENTER":226.9648,"MEAN_ANOMALY":133.0856,"EPHEMERIS_TYPE":0,"NORAD_CAT_ID":62369,"ELEMENT_SET_NO":999,"REV_AT_EPOCH":8976,"BSTAR":0.00014798,"MEAN_MOTION_DOT":0.00004768,"MEAN_MOTION_DDOT":0},{"OBJECT_NAME":"SPACEMOBILE-002 DEB","OBJECT_ID":"2024-163G","EPOCH":"2026-07-08T10:09:25.534080","CLASSIFICATION_TYPE":"U","MEAN_MOTION":15.43630312,"ECCENTRICITY":0.0004474,"INCLINATION":52.9406,"RA_OF_ASC_NODE":163.9171,"ARG_OF_PERICENTER":260.5662,"MEAN_ANOMALY":99.4836,"EPHEMERIS_TYPE":0,"NORAD_CAT_ID":62370,"ELEMENT_SET_NO":999,"REV_AT_EPOCH":10164,"BSTAR":0.00031715,"MEAN_MOTION_DOT":0.00014113,"MEAN_MOTION_DDOT":0},{"OBJECT_NAME":"SPACEMOBILE-003 DEB","OBJECT_ID":"2024-163H","EPOCH":"2026-07-08T10:43:57.309312","CLASSIFICATION_TYPE":"U","MEAN_MOTION":15.41380023,"ECCENTRICITY":0.0005682,"INCLINATION":52.9682,"RA_OF_ASC_NODE":170.5755,"ARG_OF_PERICENTER":211.8391,"MEAN_ANOMALY":148.2269,"EPHEMERIS_TYPE":0,"NORAD_CAT_ID":62371,"ELEMENT_SET_NO":999,"REV_AT_EPOCH":9516,"BSTAR":0.00032152,"MEAN_MOTION_DOT":0.00013253,"MEAN_MOTION_DDOT":0},{"OBJECT_NAME":"SPACEMOBILE-004 DEB","OBJECT_ID":"2024-163J","EPOCH":"2026-07-08T11:05:47.952384","CLASSIFICATION_TYPE":"U","MEAN_MOTION":15.40630794,"ECCENTRICITY":0.0002832,"INCLINATION":52.9831,"RA_OF_ASC_NODE":170.1093,"ARG_OF_PERICENTER":235.4069,"MEAN_ANOMALY":124.6667,"EPHEMERIS_TYPE":0,"NORAD_CAT_ID":62372,"ELEMENT_SET_NO":999,"REV_AT_EPOCH":9823,"BSTAR":0.00024235,"MEAN_MOTION_DOT":0.00009632,"MEAN_MOTION_DDOT":0},{"OBJECT_NAME":"SPACEMOBILE-008","OBJECT_ID":"2026-139A","EPOCH":"2026-07-08T09:56:22.106400","CLASSIFICATION_TYPE":"U","MEAN_MOTION":15.12795607,"ECCENTRICITY":0.0004704,"INCLINATION":52.9938,"RA_OF_ASC_NODE":166.1941,"ARG_OF_PERICENTER":40.1803,"MEAN_ANOMALY":319.9535,"EPHEMERIS_TYPE":0,"NORAD_CAT_ID":69589,"ELEMENT_SET_NO":999,"REV_AT_EPOCH":319,"BSTAR":0.000048131,"MEAN_MOTION_DOT":0.00000553,"MEAN_MOTION_DDOT":0},{"OBJECT_NAME":"SPACEMOBILE-009","OBJECT_ID":"2026-139B","EPOCH":"2026-07-08T08:23:21.806880","CLASSIFICATION_TYPE":"U","MEAN_MOTION":15.12688799,"ECCENTRICITY":0.0004938,"INCLINATION":52.9928,"RA_OF_ASC_NODE":166.4987,"ARG_OF_PERICENTER":35.3944,"MEAN_ANOMALY":324.7374,"EPHEMERIS_TYPE":0,"NORAD_CAT_ID":69590,"ELEMENT_SET_NO":999,"REV_AT_EPOCH":318,"BSTAR":0.000046945,"MEAN_MOTION_DOT":0.0000053,"MEAN_MOTION_DDOT":0},{"OBJECT_NAME":"SPACEMOBILE-010","OBJECT_ID":"2026-139C","EPOCH":"2026-07-08T10:01:53.865120","CLASSIFICATION_TYPE":"U","MEAN_MOTION":15.12519992,"ECCENTRICITY":0.000482,"INCLINATION":52.9933,"RA_OF_ASC_NODE":166.2159,"ARG_OF_PERICENTER":26.6938,"MEAN_ANOMALY":333.43,"EPHEMERIS_TYPE":0,"NORAD_CAT_ID":69591,"ELEMENT_SET_NO":999,"REV_AT_EPOCH":320,"BSTAR":0.000044398,"MEAN_MOTION_DOT":0.00000482,"MEAN_MOTION_DDOT":0}]}
